STARLINK-34178          
1 64096U 25110A   26068.26033152  .00017919  00000+0  61580-3 0  9997
2 64096  53.1610  28.9781 0001004 100.0914 260.0200 15.30192888 45811
KUIPER-00226            
1 67785U 26030X   26068.62629313  .00046834  00000+0  15530-2 0  9998
2 67785  51.8814 220.1252 0017713  64.2781 296.0030 15.30655594  5078
