[{"OBJECT_NAME":"STARLINK-34178","OBJECT_ID":"2025-110A","EPOCH":"2026-03-09T06:14:52.643328","MEAN_MOTION":15.30192888,"ECCENTRICITY":0.0001004,"INCLINATION":53.161,"RA_OF_ASC_NODE":28.9781,"ARG_OF_PERICENTER":100.0914,"MEAN_ANOMALY":260.02,"EPHEMERIS_TYPE":0,"CLASSIFICATION_TYPE":"U","NORAD_CAT_ID":64096,"ELEMENT_SET_NO":999,"REV_AT_EPOCH":4581,"BSTAR":0.00061580154,"MEAN_MOTION_DOT":0.00017919,"MEAN_MOTION_DDOT":0},{"OBJECT_NAME":"KUIPER-00226","OBJECT_ID":"2026-030X","EPOCH":"2026-03-09T15:01:51.726432","MEAN_MOTION":15.30655594,"ECCENTRICITY":0.0017713,"INCLINATION":51.8814,"RA_OF_ASC_NODE":220.1252,"ARG_OF_PERICENTER":64.2781,"MEAN_ANOMALY":296.003,"EPHEMERIS_TYPE":0,"CLASSIFICATION_TYPE":"U","NORAD_CAT_ID":67785,"ELEMENT_SET_NO":999,"REV_AT_EPOCH":507,"BSTAR":0.001553,"MEAN_MOTION_DOT":0.00046834,"MEAN_MOTION_DDOT":0}]
